0 IRIDIUM 33 DEB
1 33887U 97051BG  13281.97664545  .00000318  00000-0  10651-3 0  2926
2 33887 086.3023 112.6204 0006499 016.5756 112.2122 14.34119518243633
0 IRIDIUM 33 DEB
1 33887U 97051BG  13283.02084529  .00000314  00000-0  10523-3 0  2937
2 33887 086.3021 112.1727 0006381 013.1554 103.2551 14.34120161243783
0 IRIDIUM 33 DEB
1 33887U 97051BG  13286.16155257  .00000304  00000-0  10158-3 0  2957
2 33887 086.3019 110.8260 0006000 002.5056 118.6206 14.34122156244238
0 IRIDIUM 33 DEB
1 33887U 97051BG  13287.47556682  .00000332  00000-0  11183-3 0  2960
2 33887 086.3019 110.2626 0005843 357.7103 063.1779 14.34123081244428
0 IRIDIUM 33 DEB
1 33887U 97051BG  13288.52049558  .00000441  00000-0  15067-3 0  2973
2 33887 086.3020 109.8144 0005728 353.9154 058.3706 14.34124344244570
0 IRIDIUM 33 DEB
1 33887U 97051BG  13289.99912598  .00000357  00000-0  12057-3 0  2981
2 33887 086.3022 109.1803 0005555 348.3357 133.0745 14.34125447244780
0 IRIDIUM 33 DEB
1 33887U 97051BG  13291.52080163  .00000370  00000-0  12540-3 0  2990
2 33887 086.3024 108.5278 0005396 342.2951 070.3428 14.34126491245004
0 IRIDIUM 33 DEB
1 33887U 97051BG  13292.77812737  .00000442  00000-0  15114-3 0  3001
2 33887 086.3026 107.9888 0005264 337.2587 082.6748 14.34127059245180
0 IRIDIUM 33 DEB
1 33887U 97051BG  13293.82584731  .00000464  00000-0  15875-3 0  3017
2 33887 086.3026 107.5395 0005183 332.8284 092.9203 14.34127860245331
0 IRIDIUM 33 DEB
1 33887U 97051BG  13294.96101041  .00000476  00000-0  16302-3 0  3022
2 33887 086.3026 107.0528 0005096 327.8912 194.8463 14.34128823245496
